COMMENT,ORIGINATOR,NORAD_CAT_ID,OBJECT_NAME,OBJECT_TYPE,CLASSIFICATION_TYPE,INTLDES,EPOCH,EPOCH_MICROSECONDS,MEAN_MOTION,ECCENTRICITY,INCLINATION,RA_OF_ASC_NODE,ARG_OF_PERICENTER,MEAN_ANOMALY,EPHEMERIS_TYPE,ELEMENT_SET_NO,REV_AT_EPOCH,BSTAR,MEAN_MOTION_DOT,MEAN_MOTION_DDOT,FILE,TLE_LINE0,TLE_LINE1,TLE_LINE2,OBJECT_ID,OBJECT_NUMBER,SEMIMAJOR_AXIS,PERIOD,APOGEE,PERIGEE,DECAYED
"GENERATED VIA SPACETRACK.ORG API","18 SPCS","55091","SPACEBEE-164","PAYLOAD","U","23001CL","2023-05-17 15:34:22","687680","15.18808596","0.0016717","97.479","198.0155","110.4789","249.8242","0","999","2046","0.00065265","0.00013577","0","3910633","0 SPACEBEE-164","1 55091U 23001CL  23137.64887370  .00013577  00000-0  65265-3 0  9995","2 55091  97.4790 198.0155 0016717 110.4789 249.8242 15.18808596 20463","2023-001CL","55091","6887.577","94.811","520.956","497.928","0"
"GENERATED VIA SPACETRACK.ORG API","18 SPCS","55091","SPACEBEE-164","PAYLOAD","U","23001CL","2023-05-18 02:38:28","592160","15.18821318","0.0016726","97.4791","198.4721","109.3456","250.9589","0","999","2053","0.00063254","0.0001316","0","3911221","0 SPACEBEE-164","1 55091U 23001CL  23138.11005315  .00013160  00000-0  63254-3 0  9993","2 55091  97.4791 198.4721 0016726 109.3456 250.9589 15.18821318 20537","2023-001CL","55091","6887.539","94.810","520.924","497.884","0"
"GENERATED VIA SPACETRACK.ORG API","18 SPCS","55091","SPACEBEE-164","PAYLOAD","U","23001CL","2023-05-18 15:17:26","376576","15.18835223","0.0016771","97.4791","198.9939","107.5677","252.7391","0","999","2061","0.00060292","0.00012545","0","3911367","0 SPACEBEE-164","1 55091U 23001CL  23138.63711084  .00012545  00000-0  60292-3 0  9992","2 55091  97.4791 198.9939 0016771 107.5677 252.7391 15.18835223 20618","2023-001CL","55091","6887.497","94.809","520.913","497.811","0"
"GENERATED VIA SPACETRACK.ORG API","18 SPCS","55091","SPACEBEE-164","PAYLOAD","U","23001CL","2023-05-18 21:36:55","112832","15.18842123","0.0016786","97.4791","199.2547","106.7628","253.545","0","999","2065","0.00060674","0.00012628","0","3911388","0 SPACEBEE-164","1 55091U 23001CL  23138.90063788  .00012628  00000-0  60674-3 0  9999","2 55091  97.4791 199.2547 0016786 106.7628 253.5450 15.18842123 20656","2023-001CL","55091","6887.476","94.809","520.902","497.779","0"
"GENERATED VIA SPACETRACK.ORG API","18 SPCS","55091","SPACEBEE-164","PAYLOAD","U","23001CL","2023-05-19 21:19:56","916480","15.18869577","0.0016766","97.4787","200.2326","103.7354","256.5748","0","999","2080","0.00064742","0.00013491","0","3912278","0 SPACEBEE-164","1 55091U 23001CL  23139.88885320  .00013491  00000-0  64742-3 0  9990","2 55091  97.4787 200.2326 0016766 103.7354 256.5748 15.18869577 20802","2023-001CL","55091","6887.393","94.807","520.805","497.710","0"
"GENERATED VIA SPACETRACK.ORG API","18 SPCS","55091","SPACEBEE-164","PAYLOAD","U","23001CL","2023-05-20 03:39:25","107552","15.18882582","0.0016771","97.4785","200.4934","102.8186","257.4923","0","999","2084","0.00085151","0.00017783","0","3912613","0 SPACEBEE-164","1 55091U 23001CL  23140.15237393  .00017783  00000-0  85151-3 0  9998","2 55091  97.4785 200.4934 0016771 102.8186 257.4923 15.18882582 20846","2023-001CL","55091","6887.353","94.807","520.769","497.668","0"
"GENERATED VIA SPACETRACK.ORG API","18 SPCS","55091","SPACEBEE-164","PAYLOAD","U","23001CL","2023-05-20 16:18:20","947104","15.18905418","0.0016677","97.4783","201.015","101.3731","258.9378","0","999","2092","0.0010286","0.00021519","0","3913175","0 SPACEBEE-164","1 55091U 23001CL  23140.67940911  .00021519  00000-0  10286-2 0  9990","2 55091  97.4783 201.0150 0016677 101.3731 258.9378 15.18905418 20929","2023-001CL","55091","6887.284","94.805","520.635","497.664","0"
"GENERATED VIA SPACETRACK.ORG API","18 SPCS","55091","SPACEBEE-164","PAYLOAD","U","23001CL","2023-05-21 09:41:51","636768","15.18933013","0.0016668","97.4778","201.7323","98.6764","261.6359","0","999","2103","0.00090931","0.00019024","0","3913705","0 SPACEBEE-164","1 55091U 23001CL  23141.40406987  .00019024  00000-0  90931-3 0  9996","2 55091  97.4778 201.7323 0016668  98.6764 261.6359 15.18933013 21031","2023-001CL","55091","6887.201","94.803","520.546","497.586","0"
"GENERATED VIA SPACETRACK.ORG API","18 SPCS","55091","SPACEBEE-164","PAYLOAD","U","23001CL","2023-05-21 09:41:51","636768","15.18933013","0.0016668","97.4778","201.7323","98.6764","261.6359","0","999","2103","0.00090931","0.00019024","0","3913738","0 SPACEBEE-164","1 55091U 23001CL  23141.40406987  .00019024  00000-0  90931-3 0  9996","2 55091  97.4778 201.7323 0016668  98.6764 261.6359 15.18933013 21031","2023-001CL","55091","6887.201","94.803","520.546","497.586","0"
"GENERATED VIA SPACETRACK.ORG API","18 SPCS","55091","SPACEBEE-164","PAYLOAD","U","23001CL","2023-05-21 17:36:10","691712","15.18944456","0.001662","97.4778","202.0583","97.5752","262.737","0","999","2108","0.00084351","0.00017645","0","3914061","0 SPACEBEE-164","1 55091U 23001CL  23141.73345708  .00017645  00000-0  84351-3 0  9991","2 55091  97.4778 202.0583 0016620  97.5752 262.7370 15.18944456 21089","2023-001CL","55091","6887.166","94.803","520.478","497.585","0"
"GENERATED VIA SPACETRACK.ORG API","18 SPCS","55091","SPACEBEE-164","PAYLOAD","U","23001CL","2023-05-22 09:24:48","56832","15.18973591","0.0016555","97.4776","202.7103","95.4506","264.8617","0","999","2118","0.001056","0.00022139","0","3914693","0 SPACEBEE-164","1 55091U 23001CL  23142.39222288  .00022139  00000-0  10560-2 0  9995","2 55091  97.4776 202.7103 0016555  95.4506 264.8617 15.18973591 21183","2023-001CL","55091","6887.078","94.801","520.345","497.542","0"
"GENERATED VIA SPACETRACK.ORG API","18 SPCS","55091","SPACEBEE-164","PAYLOAD","U","23001CL","2023-05-22 15:44:14","795520","15.18979403","0.0016521","97.4776","202.9711","94.5115","265.8007","0","999","2122","0.00090191","0.00018893","0","3914951","0 SPACEBEE-164","1 55091U 23001CL  23142.65572680  .00018893  00000-0  90191-3 0  9999","2 55091  97.4776 202.9711 0016521  94.5115 265.8007 15.18979403 21226","2023-001CL","55091","6887.061","94.800","520.304","497.548","0"
"GENERATED VIA SPACETRACK.ORG API","18 SPCS","55091","SPACEBEE-164","PAYLOAD","U","23001CL","2023-05-22 15:44:14","795520","15.18979403","0.0016521","97.4776","202.9711","94.5115","265.8007","0","999","2122","0.00090191","0.00018893","0","3914964","0 SPACEBEE-164","1 55091U 23001CL  23142.65572680  .00018893  00000-0  90191-3 0  9999","2 55091  97.4776 202.9711 0016521  94.5115 265.8007 15.18979403 21226","2023-001CL","55091","6887.061","94.800","520.304","497.548","0"
"GENERATED VIA SPACETRACK.ORG API","18 SPCS","55091","SPACEBEE-164","PAYLOAD","U","23001CL","2023-05-23 17:02:00","242592","15.19014963","0.0016528","97.4776","204.0144","91.3268","268.986","0","999","2138","0.00080726","0.00016916","0","3915756","0 SPACEBEE-164","1 55091U 23001CL  23143.70972503  .00016916  00000-0  80726-3 0  9991","2 55091  97.4776 204.0144 0016528  91.3268 268.9860 15.19014963 21380","2023-001CL","55091","6886.953","94.798","520.201","497.436","0"
"GENERATED VIA SPACETRACK.ORG API","18 SPCS","55091","SPACEBEE-164","PAYLOAD","U","23001CL","2023-05-23 21:46:34","783392","15.19019769","0.0016504","97.4778","204.2103","90.8468","269.4658","0","999","2141","0.00074848","0.00015679","0","3915766","0 SPACEBEE-164","1 55091U 23001CL  23143.90734703  .00015679  00000-0  74848-3 0  9994","2 55091  97.4778 204.2103 0016504  90.8468 269.4658 15.19019769 21413","2023-001CL","55091","6886.939","94.798","520.170","497.438","0"
"GENERATED VIA SPACETRACK.ORG API","18 SPCS","55091","SPACEBEE-164","PAYLOAD","U","23001CL","2023-05-24 15:10:00","826464","15.19042664","0.0016509","97.4777","204.9276","88.5874","271.7252","0","999","2152","0.00071628","0.0001501","0","3916549","0 SPACEBEE-164","1 55091U 23001CL  23144.63195401  .00015010  00000-0  71628-3 0  9993","2 55091  97.4777 204.9276 0016509  88.5874 271.7252 15.19042664 21528","2023-001CL","55091","6886.870","94.797","520.104","497.365","0"
"GENERATED VIA SPACETRACK.ORG API","18 SPCS","55091","SPACEBEE-164","PAYLOAD","U","23001CL","2023-05-25 16:27:42","591168","15.19074353","0.0016494","97.4775","205.971","85.3167","274.995","0","999","2168","0.00072607","0.0001523","0","3917108","0 SPACEBEE-164","1 55091U 23001CL  23145.68590962  .00015230  00000-0  72607-3 0  9992","2 55091  97.4775 205.9710 0016494  85.3167 274.9950 15.19074353 21680","2023-001CL","55091","6886.774","94.795","519.998","497.280","0"
"GENERATED VIA SPACETRACK.ORG API","18 SPCS","55091","SPACEBEE-164","PAYLOAD","U","23001CL","2023-05-25 16:27:42","591168","15.19074353","0.0016494","97.4775","205.971","85.3167","274.995","0","999","2168","0.00072607","0.0001523","0","3917122","0 SPACEBEE-164","1 55091U 23001CL  23145.68590962  .00015230  00000-0  72607-3 0  9992","2 55091  97.4775 205.9710 0016494  85.3167 274.9950 15.19074353 21680","2023-001CL","55091","6886.774","94.795","519.998","497.280","0"
"GENERATED VIA SPACETRACK.ORG API","18 SPCS","55091","SPACEBEE-164","PAYLOAD","U","23001CL","2023-05-26 09:51:06","507072","15.19092215","0.0016425","97.4775","206.6882","83.0537","277.2566","0","999","2179","0.00062305","0.00013062","0","3917630","0 SPACEBEE-164","1 55091U 23001CL  23146.41049198  .00013062  00000-0  62305-3 0  9999","2 55091  97.4775 206.6882 0016425  83.0537 277.2566 15.19092215 21796","2023-001CL","55091","6886.720","94.793","519.896","497.273","0"
"GENERATED VIA SPACETRACK.ORG API","18 SPCS","55091","SPACEBEE-164","PAYLOAD","U","23001CL","2023-05-26 17:45:22","577760","15.19100833","0.0016338","97.4775","207.0143","82.071","278.2378","0","999","2184","0.00061079","0.00012806","0","3917827","0 SPACEBEE-164","1 55091U 23001CL  23146.73984465  .00012806  00000-0  61079-3 0  9991","2 55091  97.4775 207.0143 0016338  82.0710 278.2378 15.19100833 21840","2023-001CL","55091","6886.694","94.793","519.810","497.307","0"
